[{"OBJECT_NAME":"NIMIQ 2","OBJECT_ID":"2002-062A","EPOCH":"2026-03-04T00:36:38.633760","MEAN_MOTION":1.00272392,"ECCENTRICITY":0.0006544,"INCLINATION":9.2039,"RA_OF_ASC_NODE":57.9873,"ARG_OF_PERICENTER":288.5303,"MEAN_ANOMALY":75.2234,"EPHEMERIS_TYPE":0,"CLASSIFICATION_TYPE":"U","NORAD_CAT_ID":27632,"ELEMENT_SET_NO":999,"REV_AT_EPOCH":4313,"BSTAR":0,"MEAN_MOTION_DOT":-7.7e-7,"MEAN_MOTION_DDOT":0},{"OBJECT_NAME":"ANIK F2","OBJECT_ID":"2004-027A","EPOCH":"2026-03-04T03:14:19.471776","MEAN_MOTION":1.0027236,"ECCENTRICITY":0.0003027,"INCLINATION":3.0134,"RA_OF_ASC_NODE":80.8583,"ARG_OF_PERICENTER":296.6773,"MEAN_ANOMALY":81.8127,"EPHEMERIS_TYPE":0,"CLASSIFICATION_TYPE":"U","NORAD_CAT_ID":28378,"ELEMENT_SET_NO":999,"REV_AT_EPOCH":4021,"BSTAR":0,"MEAN_MOTION_DOT":-6.1e-7,"MEAN_MOTION_DDOT":0},{"OBJECT_NAME":"ANIK F1R","OBJECT_ID":"2005-036A","EPOCH":"2026-03-04T03:15:26.863776","MEAN_MOTION":1.00272119,"ECCENTRICITY":0.0002892,"INCLINATION":4.0443,"RA_OF_ASC_NODE":77.8955,"ARG_OF_PERICENTER":299.7446,"MEAN_ANOMALY":85.8143,"EPHEMERIS_TYPE":0,"CLASSIFICATION_TYPE":"U","NORAD_CAT_ID":28868,"ELEMENT_SET_NO":999,"REV_AT_EPOCH":4540,"BSTAR":0,"MEAN_MOTION_DOT":-8.6e-7,"MEAN_MOTION_DDOT":0},{"OBJECT_NAME":"ANIK F3","OBJECT_ID":"2007-009A","EPOCH":"2026-03-04T03:12:12.175200","MEAN_MOTION":1.00273402,"ECCENTRICITY":0.0002795,"INCLINATION":0.9262,"RA_OF_ASC_NODE":85.2149,"ARG_OF_PERICENTER":265.0912,"MEAN_ANOMALY":100.9231,"EPHEMERIS_TYPE":0,"CLASSIFICATION_TYPE":"U","NORAD_CAT_ID":31102,"ELEMENT_SET_NO":999,"REV_AT_EPOCH":4551,"BSTAR":0,"MEAN_MOTION_DOT":-1.3e-7,"MEAN_MOTION_DDOT":0},{"OBJECT_NAME":"NIMIQ 4","OBJECT_ID":"2008-044A","EPOCH":"2026-03-04T04:10:38.597376","MEAN_MOTION":1.00270314,"ECCENTRICITY":0.0002345,"INCLINATION":0.0281,"RA_OF_ASC_NODE":100.9532,"ARG_OF_PERICENTER":255.8098,"MEAN_ANOMALY":145.8028,"EPHEMERIS_TYPE":0,"CLASSIFICATION_TYPE":"U","NORAD_CAT_ID":33373,"ELEMENT_SET_NO":999,"REV_AT_EPOCH":6393,"BSTAR":0,"MEAN_MOTION_DOT":-2.32e-6,"MEAN_MOTION_DDOT":0},{"OBJECT_NAME":"TELSTAR 11N","OBJECT_ID":"2009-009A","EPOCH":"2026-03-04T01:30:38.672640","MEAN_MOTION":1.00270782,"ECCENTRICITY":0.0002564,"INCLINATION":0.0201,"RA_OF_ASC_NODE":130.4864,"ARG_OF_PERICENTER":202.6375,"MEAN_ANOMALY":173.7861,"EPHEMERIS_TYPE":0,"CLASSIFICATION_TYPE":"U","NORAD_CAT_ID":34111,"ELEMENT_SET_NO":999,"REV_AT_EPOCH":4519,"BSTAR":0,"MEAN_MOTION_DOT":-2.64e-6,"MEAN_MOTION_DDOT":0},{"OBJECT_NAME":"TERRESTAR-1","OBJECT_ID":"2009-035A","EPOCH":"2026-03-03T13:32:48.818688","MEAN_MOTION":1.0027152,"ECCENTRICITY":0.0002899,"INCLINATION":5.0935,"RA_OF_ASC_NODE":48.8335,"ARG_OF_PERICENTER":301.5224,"MEAN_ANOMALY":263.1652,"EPHEMERIS_TYPE":0,"CLASSIFICATION_TYPE":"U","NORAD_CAT_ID":35496,"ELEMENT_SET_NO":999,"REV_AT_EPOCH":6107,"BSTAR":0,"MEAN_MOTION_DOT":-6.8e-7,"MEAN_MOTION_DDOT":0},{"OBJECT_NAME":"NIMIQ 5","OBJECT_ID":"2009-050A","EPOCH":"2026-03-04T03:44:38.901120","MEAN_MOTION":1.00273209,"ECCENTRICITY":0.0002655,"INCLINATION":0.0537,"RA_OF_ASC_NODE":271.2563,"ARG_OF_PERICENTER":72.6011,"MEAN_ANOMALY":161.4903,"EPHEMERIS_TYPE":0,"CLASSIFICATION_TYPE":"U","NORAD_CAT_ID":35873,"ELEMENT_SET_NO":999,"REV_AT_EPOCH":6029,"BSTAR":0,"MEAN_MOTION_DOT":-2.69e-6,"MEAN_MOTION_DDOT":0},{"OBJECT_NAME":"SKYTERRA 1","OBJECT_ID":"2010-061A","EPOCH":"2026-03-04T01:34:29.042688","MEAN_MOTION":1.00271469,"ECCENTRICITY":0.0001604,"INCLINATION":4.9016,"RA_OF_ASC_NODE":50.914,"ARG_OF_PERICENTER":293.9261,"MEAN_ANOMALY":99.2594,"EPHEMERIS_TYPE":0,"CLASSIFICATION_TYPE":"U","NORAD_CAT_ID":37218,"ELEMENT_SET_NO":999,"REV_AT_EPOCH":5614,"BSTAR":0,"MEAN_MOTION_DOT":-1.28e-6,"MEAN_MOTION_DDOT":0},{"OBJECT_NAME":"TELSTAR 14R","OBJECT_ID":"2011-021A","EPOCH":"2026-03-04T01:45:27.989568","MEAN_MOTION":1.00272792,"ECCENTRICITY":0.0002427,"INCLINATION":0.0365,"RA_OF_ASC_NODE":269.7706,"ARG_OF_PERICENTER":79.4879,"MEAN_ANOMALY":135.9192,"EPHEMERIS_TYPE":0,"CLASSIFICATION_TYPE":"U","NORAD_CAT_ID":37602,"ELEMENT_SET_NO":999,"REV_AT_EPOCH":5478,"BSTAR":0,"MEAN_MOTION_DOT":-2.93e-6,"MEAN_MOTION_DDOT":0},{"OBJECT_NAME":"NIMIQ 6","OBJECT_ID":"2012-026A","EPOCH":"2026-03-04T04:27:38.801664","MEAN_MOTION":1.00270974,"ECCENTRICITY":0.0002627,"INCLINATION":0.0559,"RA_OF_ASC_NODE":279.8394,"ARG_OF_PERICENTER":59.1089,"MEAN_ANOMALY":158.7873,"EPHEMERIS_TYPE":0,"CLASSIFICATION_TYPE":"U","NORAD_CAT_ID":38342,"ELEMENT_SET_NO":999,"REV_AT_EPOCH":4936,"BSTAR":0,"MEAN_MOTION_DOT":-1.86e-6,"MEAN_MOTION_DDOT":0},{"OBJECT_NAME":"ANIK G1","OBJECT_ID":"2013-014A","EPOCH":"2026-03-04T03:15:26.863776","MEAN_MOTION":1.00271683,"ECCENTRICITY":0.0003046,"INCLINATION":0.0558,"RA_OF_ASC_NODE":270.9178,"ARG_OF_PERICENTER":51.088,"MEAN_ANOMALY":141.4263,"EPHEMERIS_TYPE":0,"CLASSIFICATION_TYPE":"U","NORAD_CAT_ID":39127,"ELEMENT_SET_NO":999,"REV_AT_EPOCH":4719,"BSTAR":0,"MEAN_MOTION_DOT":-8.6e-7,"MEAN_MOTION_DDOT":0},{"OBJECT_NAME":"TELSTAR 12V","OBJECT_ID":"2015-068A","EPOCH":"2026-03-03T22:25:38.664192","MEAN_MOTION":1.00271484,"ECCENTRICITY":0.0002634,"INCLINATION":0.02,"RA_OF_ASC_NODE":104.8111,"ARG_OF_PERICENTER":243.8841,"MEAN_ANOMALY":134.3921,"EPHEMERIS_TYPE":0,"CLASSIFICATION_TYPE":"U","NORAD_CAT_ID":41036,"ELEMENT_SET_NO":999,"REV_AT_EPOCH":3757,"BSTAR":0,"MEAN_MOTION_DOT":-1.32e-6,"MEAN_MOTION_DDOT":0},{"OBJECT_NAME":"VIASAT-2","OBJECT_ID":"2017-029A","EPOCH":"2026-03-04T01:43:28.181280","MEAN_MOTION":1.00272219,"ECCENTRICITY":6.15e-5,"INCLINATION":0.0245,"RA_OF_ASC_NODE":247.4016,"ARG_OF_PERICENTER":132.12,"MEAN_ANOMALY":98.2655,"EPHEMERIS_TYPE":0,"CLASSIFICATION_TYPE":"U","NORAD_CAT_ID":42740,"ELEMENT_SET_NO":999,"REV_AT_EPOCH":3215,"BSTAR":0,"MEAN_MOTION_DOT":-2.78e-6,"MEAN_MOTION_DDOT":0},{"OBJECT_NAME":"LEO 1 (LEO VANTAGE 1)","OBJECT_ID":"2018-004C","EPOCH":"2026-03-04T04:22:39.365184","MEAN_MOTION":14.67120416,"ECCENTRICITY":0.0353364,"INCLINATION":99.2486,"RA_OF_ASC_NODE":327.7875,"ARG_OF_PERICENTER":41.758,"MEAN_ANOMALY":321.0018,"EPHEMERIS_TYPE":0,"CLASSIFICATION_TYPE":"U","NORAD_CAT_ID":43113,"ELEMENT_SET_NO":999,"REV_AT_EPOCH":42208,"BSTAR":0.00043384,"MEAN_MOTION_DOT":6.268e-5,"MEAN_MOTION_DDOT":0},{"OBJECT_NAME":"TELSTAR 19V","OBJECT_ID":"2018-059A","EPOCH":"2026-03-04T03:28:03.154944","MEAN_MOTION":1.0027202,"ECCENTRICITY":5.93e-5,"INCLINATION":0.0201,"RA_OF_ASC_NODE":169.6505,"ARG_OF_PERICENTER":253.965,"MEAN_ANOMALY":87.2796,"EPHEMERIS_TYPE":0,"CLASSIFICATION_TYPE":"U","NORAD_CAT_ID":43562,"ELEMENT_SET_NO":999,"REV_AT_EPOCH":2809,"BSTAR":0,"MEAN_MOTION_DOT":-2.92e-6,"MEAN_MOTION_DDOT":0},{"OBJECT_NAME":"TELSTAR 18V","OBJECT_ID":"2018-069A","EPOCH":"2026-03-03T23:17:21.120576","MEAN_MOTION":1.00271391,"ECCENTRICITY":0.0002083,"INCLINATION":0.0174,"RA_OF_ASC_NODE":228.2832,"ARG_OF_PERICENTER":114.1403,"MEAN_ANOMALY":306.6322,"EPHEMERIS_TYPE":0,"CLASSIFICATION_TYPE":"U","NORAD_CAT_ID":43611,"ELEMENT_SET_NO":999,"REV_AT_EPOCH":2757,"BSTAR":0,"MEAN_MOTION_DOT":-3.07e-6,"MEAN_MOTION_DDOT":0}]
